[{"OBJECT_NAME":"STARLINK-4452","OBJECT_ID":"2022-105L","EPOCH":"2025-12-04T15:52:51.724128","MEAN_MOTION":15.05647391,"ECCENTRICITY":0.0002318,"INCLINATION":97.6027,"RA_OF_ASC_NODE":217.6048,"ARG_OF_PERICENTER":87.6157,"MEAN_ANOMALY":272.5335,"EPHEMERIS_TYPE":0,"CLASSIFICATION_TYPE":"U","NORAD_CAT_ID":53658,"ELEMENT_SET_NO":999,"REV_AT_EPOCH":17900,"BSTAR":1.109e-5,"MEAN_MOTION_DOT":9.9e-7,"MEAN_MOTION_DDOT":0},{"OBJECT_NAME":"STARLINK-4463","OBJECT_ID":"2022-105M","EPOCH":"2025-12-04T15:20:34.820160","MEAN_MOTION":15.13332928,"ECCENTRICITY":0.0001712,"INCLINATION":97.6032,"RA_OF_ASC_NODE":217.6409,"ARG_OF_PERICENTER":87.6563,"MEAN_ANOMALY":272.4863,"EPHEMERIS_TYPE":0,"CLASSIFICATION_TYPE":"U","NORAD_CAT_ID":53659,"ELEMENT_SET_NO":999,"REV_AT_EPOCH":17900,"BSTAR":-5.4213e-5,"MEAN_MOTION_DOT":-1.031e-5,"MEAN_MOTION_DDOT":0},{"OBJECT_NAME":"STARLINK-4473","OBJECT_ID":"2022-105N","EPOCH":"2025-12-04T15:26:03.162624","MEAN_MOTION":15.01296804,"ECCENTRICITY":9.34e-5,"INCLINATION":97.6002,"RA_OF_ASC_NODE":217.1564,"ARG_OF_PERICENTER":87.0296,"MEAN_ANOMALY":273.1035,"EPHEMERIS_TYPE":0,"CLASSIFICATION_TYPE":"U","NORAD_CAT_ID":53660,"ELEMENT_SET_NO":999,"REV_AT_EPOCH":17897,"BSTAR":0.00027045,"MEAN_MOTION_DOT":3.42e-5,"MEAN_MOTION_DDOT":0},{"OBJECT_NAME":"STARLINK-4472","OBJECT_ID":"2022-105P","EPOCH":"2025-12-04T15:29:07.630080","MEAN_MOTION":15.01250543,"ECCENTRICITY":0.0001728,"INCLINATION":97.6016,"RA_OF_ASC_NODE":217.1614,"ARG_OF_PERICENTER":94.9418,"MEAN_ANOMALY":265.2004,"EPHEMERIS_TYPE":0,"CLASSIFICATION_TYPE":"U","NORAD_CAT_ID":53661,"ELEMENT_SET_NO":999,"REV_AT_EPOCH":17897,"BSTAR":0.00022059,"MEAN_MOTION_DOT":2.775e-5,"MEAN_MOTION_DDOT":0},{"OBJECT_NAME":"STARLINK-4357","OBJECT_ID":"2022-105Q","EPOCH":"2025-12-04T15:12:58.707648","MEAN_MOTION":15.05635866,"ECCENTRICITY":0.0002222,"INCLINATION":97.602,"RA_OF_ASC_NODE":217.4576,"ARG_OF_PERICENTER":82.777,"MEAN_ANOMALY":277.3709,"EPHEMERIS_TYPE":0,"CLASSIFICATION_TYPE":"U","NORAD_CAT_ID":53662,"ELEMENT_SET_NO":999,"REV_AT_EPOCH":17899,"BSTAR":0.00025388,"MEAN_MOTION_DOT":3.603e-5,"MEAN_MOTION_DDOT":0},{"OBJECT_NAME":"STARLINK-4457","OBJECT_ID":"2022-105R","EPOCH":"2025-12-04T15:48:52.772832","MEAN_MOTION":15.05661115,"ECCENTRICITY":0.0002543,"INCLINATION":97.6026,"RA_OF_ASC_NODE":217.5989,"ARG_OF_PERICENTER":85.5782,"MEAN_ANOMALY":274.5735,"EPHEMERIS_TYPE":0,"CLASSIFICATION_TYPE":"U","NORAD_CAT_ID":53663,"ELEMENT_SET_NO":999,"REV_AT_EPOCH":17900,"BSTAR":3.8741e-5,"MEAN_MOTION_DOT":4.98e-6,"MEAN_MOTION_DDOT":0},{"OBJECT_NAME":"STARLINK-4471","OBJECT_ID":"2022-105S","EPOCH":"2025-12-04T16:32:43.637280","MEAN_MOTION":15.05649614,"ECCENTRICITY":0.0002225,"INCLINATION":97.6011,"RA_OF_ASC_NODE":217.5427,"ARG_OF_PERICENTER":82.3327,"MEAN_ANOMALY":277.8152,"EPHEMERIS_TYPE":0,"CLASSIFICATION_TYPE":"U","NORAD_CAT_ID":53664,"ELEMENT_SET_NO":999,"REV_AT_EPOCH":17900,"BSTAR":7.4939e-5,"MEAN_MOTION_DOT":1.021e-5,"MEAN_MOTION_DDOT":0},{"OBJECT_NAME":"STARLINK-4334","OBJECT_ID":"2022-105T","EPOCH":"2025-12-04T15:44:52.365696","MEAN_MOTION":15.05640725,"ECCENTRICITY":0.0002537,"INCLINATION":97.6019,"RA_OF_ASC_NODE":217.595,"ARG_OF_PERICENTER":87.597,"MEAN_ANOMALY":272.5547,"EPHEMERIS_TYPE":0,"CLASSIFICATION_TYPE":"U","NORAD_CAT_ID":53665,"ELEMENT_SET_NO":999,"REV_AT_EPOCH":17900,"BSTAR":-0.00024061,"MEAN_MOTION_DOT":-3.53e-5,"MEAN_MOTION_DDOT":0},{"OBJECT_NAME":"STARLINK-4406","OBJECT_ID":"2022-105V","EPOCH":"2025-12-04T15:20:57.850080","MEAN_MOTION":15.05648412,"ECCENTRICITY":0.0002282,"INCLINATION":97.6009,"RA_OF_ASC_NODE":217.6147,"ARG_OF_PERICENTER":78.5641,"MEAN_ANOMALY":281.5842,"EPHEMERIS_TYPE":0,"CLASSIFICATION_TYPE":"U","NORAD_CAT_ID":53667,"ELEMENT_SET_NO":999,"REV_AT_EPOCH":17900,"BSTAR":1.0594e-5,"MEAN_MOTION_DOT":9.2e-7,"MEAN_MOTION_DDOT":0},{"OBJECT_NAME":"STARLINK-4458","OBJECT_ID":"2022-105W","EPOCH":"2025-12-04T16:16:46.484256","MEAN_MOTION":15.05648582,"ECCENTRICITY":0.0002685,"INCLINATION":97.6025,"RA_OF_ASC_NODE":217.5209,"ARG_OF_PERICENTER":92.0127,"MEAN_ANOMALY":268.1407,"EPHEMERIS_TYPE":0,"CLASSIFICATION_TYPE":"U","NORAD_CAT_ID":53668,"ELEMENT_SET_NO":999,"REV_AT_EPOCH":17900,"BSTAR":3.5805e-5,"MEAN_MOTION_DOT":4.56e-6,"MEAN_MOTION_DDOT":0},{"OBJECT_NAME":"STARLINK-4464","OBJECT_ID":"2022-105X","EPOCH":"2025-12-04T15:20:46.129920","MEAN_MOTION":15.0126382,"ECCENTRICITY":8.33e-5,"INCLINATION":97.6011,"RA_OF_ASC_NODE":217.1423,"ARG_OF_PERICENTER":111.7666,"MEAN_ANOMALY":248.3647,"EPHEMERIS_TYPE":0,"CLASSIFICATION_TYPE":"U","NORAD_CAT_ID":53669,"ELEMENT_SET_NO":999,"REV_AT_EPOCH":17897,"BSTAR":3.2519e-5,"MEAN_MOTION_DOT":3.6e-6,"MEAN_MOTION_DDOT":0},{"OBJECT_NAME":"STARLINK-4459","OBJECT_ID":"2022-105Y","EPOCH":"2025-12-04T15:32:55.553280","MEAN_MOTION":15.05645263,"ECCENTRICITY":0.0002156,"INCLINATION":97.6018,"RA_OF_ASC_NODE":217.5782,"ARG_OF_PERICENTER":85.9664,"MEAN_ANOMALY":274.1809,"EPHEMERIS_TYPE":0,"CLASSIFICATION_TYPE":"U","NORAD_CAT_ID":53670,"ELEMENT_SET_NO":999,"REV_AT_EPOCH":17900,"BSTAR":2.44e-5,"MEAN_MOTION_DOT":2.91e-6,"MEAN_MOTION_DDOT":0},{"OBJECT_NAME":"STARLINK-4440","OBJECT_ID":"2022-105Z","EPOCH":"2025-12-04T15:07:47.546688","MEAN_MOTION":15.0126085,"ECCENTRICITY":8.73e-5,"INCLINATION":97.6024,"RA_OF_ASC_NODE":217.1468,"ARG_OF_PERICENTER":88.4513,"MEAN_ANOMALY":271.6811,"EPHEMERIS_TYPE":0,"CLASSIFICATION_TYPE":"U","NORAD_CAT_ID":53671,"ELEMENT_SET_NO":999,"REV_AT_EPOCH":17897,"BSTAR":0.00012379,"MEAN_MOTION_DOT":1.532e-5,"MEAN_MOTION_DDOT":0},{"OBJECT_NAME":"STARLINK-4428","OBJECT_ID":"2022-105AA","EPOCH":"2025-12-04T14:48:48.641760","MEAN_MOTION":15.01230801,"ECCENTRICITY":0.0002902,"INCLINATION":97.6023,"RA_OF_ASC_NODE":217.1636,"ARG_OF_PERICENTER":83.6842,"MEAN_ANOMALY":276.4712,"EPHEMERIS_TYPE":0,"CLASSIFICATION_TYPE":"U","NORAD_CAT_ID":53672,"ELEMENT_SET_NO":999,"REV_AT_EPOCH":17897,"BSTAR":-0.0001391,"MEAN_MOTION_DOT":-1.843e-5,"MEAN_MOTION_DDOT":0},{"OBJECT_NAME":"STARLINK-4456","OBJECT_ID":"2022-105AB","EPOCH":"2025-12-04T14:49:03.476640","MEAN_MOTION":15.05647885,"ECCENTRICITY":0.0002533,"INCLINATION":97.6006,"RA_OF_ASC_NODE":217.5244,"ARG_OF_PERICENTER":94.4361,"MEAN_ANOMALY":265.7156,"EPHEMERIS_TYPE":0,"CLASSIFICATION_TYPE":"U","NORAD_CAT_ID":53673,"ELEMENT_SET_NO":999,"REV_AT_EPOCH":17899,"BSTAR":1.3992e-5,"MEAN_MOTION_DOT":1.41e-6,"MEAN_MOTION_DDOT":0},{"OBJECT_NAME":"STARLINK-4620","OBJECT_ID":"2022-105AC","EPOCH":"2025-12-04T14:59:25.001088","MEAN_MOTION":15.01280759,"ECCENTRICITY":0.0001732,"INCLINATION":97.6056,"RA_OF_ASC_NODE":217.1448,"ARG_OF_PERICENTER":78.5801,"MEAN_ANOMALY":281.5618,"EPHEMERIS_TYPE":0,"CLASSIFICATION_TYPE":"U","NORAD_CAT_ID":53674,"ELEMENT_SET_NO":999,"REV_AT_EPOCH":17897,"BSTAR":0.00026516,"MEAN_MOTION_DOT":3.351e-5,"MEAN_MOTION_DDOT":0},{"OBJECT_NAME":"STARLINK-4617","OBJECT_ID":"2022-105AD","EPOCH":"2025-12-04T15:05:00.449952","MEAN_MOTION":15.05663969,"ECCENTRICITY":0.0002016,"INCLINATION":97.6015,"RA_OF_ASC_NODE":217.5891,"ARG_OF_PERICENTER":86.5152,"MEAN_ANOMALY":273.6306,"EPHEMERIS_TYPE":0,"CLASSIFICATION_TYPE":"U","NORAD_CAT_ID":53675,"ELEMENT_SET_NO":999,"REV_AT_EPOCH":17900,"BSTAR":0.00025747,"MEAN_MOTION_DOT":3.658e-5,"MEAN_MOTION_DDOT":0}]
