STARLINK-4452           
1 53658U 22105L   25338.66170977  .00000099  00000+0  11090-4 0  9993
2 53658  97.6027 217.6048 0002318  87.6157 272.5335 15.05647391179001
STARLINK-4463           
1 53659U 22105M   25338.63929190 -.00001031  00000+0 -54213-4 0  9993
2 53659  97.6032 217.6409 0001712  87.6563 272.4863 15.13332928179008
STARLINK-4473           
1 53660U 22105N   25338.64309216  .00003420  00000+0  27045-3 0  9991
2 53660  97.6002 217.1564 0000934  87.0296 273.1035 15.01296804178979
STARLINK-4472           
1 53661U 22105P   25338.64522720  .00002775  00000+0  22059-3 0  9991
2 53661  97.6016 217.1614 0001728  94.9418 265.2004 15.01250543178974
STARLINK-4357           
1 53662U 22105Q   25338.63401282  .00003603  00000+0  25388-3 0  9999
2 53662  97.6020 217.4576 0002222  82.7770 277.3709 15.05635866178993
STARLINK-4457           
1 53663U 22105R   25338.65894413  .00000498  00000+0  38741-4 0  9991
2 53663  97.6026 217.5989 0002543  85.5782 274.5735 15.05661115179006
STARLINK-4471           
1 53664U 22105S   25338.68939395  .00001021  00000+0  74939-4 0  9996
2 53664  97.6011 217.5427 0002225  82.3327 277.8152 15.05649614179004
STARLINK-4334           
1 53665U 22105T   25338.65616164 -.00003530  00000+0 -24061-3 0  9999
2 53665  97.6019 217.5950 0002537  87.5970 272.5547 15.05640725179005
STARLINK-4406           
1 53667U 22105V   25338.63955845  .00000092  00000+0  10594-4 0  9996
2 53667  97.6009 217.6147 0002282  78.5641 281.5842 15.05648412179006
STARLINK-4458           
1 53668U 22105W   25338.67831579  .00000456  00000+0  35805-4 0  9994
2 53668  97.6025 217.5209 0002685  92.0127 268.1407 15.05648582179006
STARLINK-4464           
1 53669U 22105X   25338.63942280  .00000360  00000+0  32519-4 0  9996
2 53669  97.6011 217.1423 0000833 111.7666 248.3647 15.01263820178971
STARLINK-4459           
1 53670U 22105Y   25338.64786520  .00000291  00000+0  24400-4 0  9995
2 53670  97.6018 217.5782 0002156  85.9664 274.1809 15.05645263179003
STARLINK-4440           
1 53671U 22105Z   25338.63041142  .00001532  00000+0  12379-3 0  9999
2 53671  97.6024 217.1468 0000873  88.4513 271.6811 15.01260850178974
STARLINK-4428           
1 53672U 22105AA  25338.61722965 -.00001843  00000+0 -13910-3 0  9996
2 53672  97.6023 217.1636 0002902  83.6842 276.4712 15.01230801178974
STARLINK-4456           
1 53673U 22105AB  25338.61740135  .00000141  00000+0  13992-4 0  9995
2 53673  97.6006 217.5244 0002533  94.4361 265.7156 15.05647885178994
STARLINK-4620           
1 53674U 22105AC  25338.62459492  .00003351  00000+0  26516-3 0  9991
2 53674  97.6056 217.1448 0001732  78.5801 281.5618 15.01280759178970
STARLINK-4617           
1 53675U 22105AD  25338.62847743  .00003658  00000+0  25747-3 0  9997
2 53675  97.6015 217.5891 0002016  86.5152 273.6306 15.05663969179009
